{
    "links": {
        "self": "http://www.neowsapp.com/rest/v1/neo/3893861?api_key=iIulBulltgU6a56xZRHN4H3l9WmuAYTsLGpBGhQ2"
    },
    "id": "3893861",
    "neo_reference_id": "3893861",
    "name": "(2019 XP)",
    "designation": "2019 XP",
    "nasa_jpl_url": "http://ssd.jpl.nasa.gov/sbdb.cgi?sstr=3893861",
    "absolute_magnitude_h": 26.6,
    "estimated_diameter": {
        "kilometers": {
            "estimated_diameter_min": 0.0127219879,
            "estimated_diameter_max": 0.0284472297
        },
        "meters": {
            "estimated_diameter_min": 12.7219878539,
            "estimated_diameter_max": 28.4472296503
        },
        "miles": {
            "estimated_diameter_min": 0.0079050743,
            "estimated_diameter_max": 0.0176762835
        },
        "feet": {
            "estimated_diameter_min": 41.7388066307,
            "estimated_diameter_max": 93.330808926
        }
    },
    "is_potentially_hazardous_asteroid": false,
    "close_approach_data": [
        {
            "close_approach_date": "2019-12-07",
            "close_approach_date_full": "2019-Dec-07 21:11",
            "epoch_date_close_approach": 1575753060000,
            "relative_velocity": {
                "kilometers_per_second": "12.1643614665",
                "kilometers_per_hour": "43791.7012795447",
                "miles_per_hour": "27210.4601645038"
            },
            "miss_distance": {
                "astronomical": "0.0141413429",
                "lunar": "5.5009823881",
                "kilometers": "2115514.776779623",
                "miles": "1314519.9271918774"
            },
            "orbiting_body": "Earth"
        },
        {
            "close_approach_date": "2022-04-23",
            "close_approach_date_full": "2022-Apr-23 19:04",
            "epoch_date_close_approach": 1650740640000,
            "relative_velocity": {
                "kilometers_per_second": "18.5623103457",
                "kilometers_per_hour": "66824.3172446136",
                "miles_per_hour": "41522.0320123545"
            },
            "miss_distance": {
                "astronomical": "0.2258271779",
                "lunar": "87.8467722031",
                "kilometers": "33783264.801951073",
                "miles": "20991947.3383998874"
            },
            "orbiting_body": "Earth"
        }
    ],
    "orbital_data": {
        "orbit_id": "3",
        "orbit_determination_date": "2019-12-06 05:26:19",
        "first_observation_date": "2019-12-03",
        "last_observation_date": "2019-12-04",
        "data_arc_in_days": 1,
        "observations_used": 22,
        "orbit_uncertainty": "8",
        "minimum_orbit_intersection": ".00311614",
        "jupiter_tisserand_invariant": "4.108",
        "epoch_osculation": "2458821.5",
        "eccentricity": ".5028794397350134",
        "semi_major_axis": "1.661900097398611",
        "inclination": ".4252726205529093",
        "ascending_node_longitude": "171.5533546661467",
        "orbital_period": "782.5386500094269",
        "perihelion_distance": ".8261647075232335",
        "perihelion_argument": "323.6868564281588",
        "aphelion_distance": "2.497635487273989",
        "perihelion_time": "2458867.213685248419",
        "mean_anomaly": "338.9698225266795",
        "mean_motion": ".4600411749575094",
        "equinox": "J2000",
        "orbit_class": {
            "orbit_class_type": "APO",
            "orbit_class_description": "Near-Earth asteroid orbits which cross the Earth’s orbit similar to that of 1862 Apollo",
            "orbit_class_range": "a (semi-major axis) > 1.0 AU; q (perihelion) < 1.017 AU"
        }
    },
    "is_sentry_object": false
}